{
  "type": "FeatureCollection",
  "features": [
    {
      "type": "Feature",
      "properties": {
        "norad_id": 42917,
        "name": "QZS-3 (QZSS/PRN 199)",
        "group": "gnss",
        "lat": 0.04735966933624395,
        "lon": -47.07112224196794,
        "alt_km": 35779.7661687316,
        "timestamp": "2025-12-11T07:02:23.973362+00:00",
        "meta_object_name": "QZS-3 (QZSS/PRN 199)",
        "meta_object_id": "2017-048A",
        "meta_epoch": "2025-12-10T20:59:40.749216",
        "meta_mean_motion": 1.00272846,
        "meta_eccentricity": 0.00020866,
        "meta_inclination": 0.0616,
        "meta_ra_of_asc_node": 201.0083,
        "meta_arg_of_pericenter": 65.4522,
        "meta_mean_anomaly": 255.3607,
        "meta_ephemeris_type": 0,
        "meta_classification_type": "U",
        "meta_norad_cat_id": 42917,
        "meta_element_set_no": 999,
        "meta_rev_at_epoch": 3037,
        "meta_bstar": 0,
        "meta_mean_motion_dot": -3.43e-06,
        "meta_mean_motion_ddot": 0,
        "tle_line1": "1 42917U 17048A   25344.87477719 -.00000343  00000+0  00000+0 0  9990",
        "tle_line2": "2 42917   0.0616 201.0083 0002086  65.4522 255.3607  1.00272846 30373"
      },
      "geometry": {
        "type": "Point",
        "coordinates": [
          -47.07112224196794,
          0.04735966933624395
        ]
      }
    },
    {
      "type": "Feature",
      "properties": {
        "norad_id": 42939,
        "name": "COSMOS 2522 (752)",
        "group": "gnss",
        "lat": -63.27248542255777,
        "lon": 93.28161088680226,
        "alt_km": 19122.99626817568,
        "timestamp": "2025-12-11T07:02:23.973375+00:00",
        "meta_object_name": "COSMOS 2522 (752)",
        "meta_object_id": "2017-055A",
        "meta_epoch": "2025-12-10T11:32:27.733920",
        "meta_mean_motion": 2.13101836,
        "meta_eccentricity": 0.00066213,
        "meta_inclination": 64.076,
        "meta_ra_of_asc_node": 198.3059,
        "meta_arg_of_pericenter": 225.9085,
        "meta_mean_anomaly": 134.1066,
        "meta_ephemeris_type": 0,
        "meta_classification_type": "U",
        "meta_norad_cat_id": 42939,
        "meta_element_set_no": 999,
        "meta_rev_at_epoch": 6395,
        "meta_bstar": 0,
        "meta_mean_motion_dot": 4.7e-07,
        "meta_mean_motion_ddot": 0,
        "tle_line1": "1 42939U 17055A   25344.48087655  .00000047  00000+0  00000+0 0  9995",
        "tle_line2": "2 42939  64.0760 198.3059 0006621 225.9085 134.1066  2.13101836 63952"
      },
      "geometry": {
        "type": "Point",
        "coordinates": [
          93.28161088680226,
          -63.27248542255777
        ]
      }
    },
    {
      "type": "Feature",
      "properties": {
        "norad_id": 42965,
        "name": "QZS-4 (QZSS/PRN 195)",
        "group": "gnss",
        "lat": -9.85346876438116,
        "lon": -25.97518835485806,
        "alt_km": 34653.286394407296,
        "timestamp": "2025-12-11T07:02:23.973388+00:00",
        "meta_object_name": "QZS-4 (QZSS/PRN 195)",
        "meta_object_id": "2017-062A",
        "meta_epoch": "2025-12-10T21:00:10.700640",
        "meta_mean_motion": 1.00253232,
        "meta_eccentricity": 0.07520886,
        "meta_inclination": 40.2267,
        "meta_ra_of_asc_node": 345.8936,
        "meta_arg_of_pericenter": 271.5128,
        "meta_mean_anomaly": 274.0366,
        "meta_ephemeris_type": 0,
        "meta_classification_type": "U",
        "meta_norad_cat_id": 42965,
        "meta_element_set_no": 999,
        "meta_rev_at_epoch": 2991,
        "meta_bstar": 0,
        "meta_mean_motion_dot": -3.59e-06,
        "meta_mean_motion_ddot": 0,
        "tle_line1": "1 42965U 17062A   25344.87512385 -.00000359  00000+0  00000+0 0  9995",
        "tle_line2": "2 42965  40.2267 345.8936 0752088 271.5128 274.0366  1.00253232 29910"
      },
      "geometry": {
        "type": "Point",
        "coordinates": [
          -25.97518835485806,
          -9.85346876438116
        ]
      }
    },
    {
      "type": "Feature",
      "properties": {
        "norad_id": 43001,
        "name": "BEIDOU-3 M1 (C19)",
        "group": "gnss",
        "lat": 48.272235073112185,
        "lon": 117.09780365627869,
        "alt_km": 21534.80825523455,
        "timestamp": "2025-12-11T07:02:23.973399+00:00",
        "meta_object_name": "BEIDOU-3 M1 (C19)",
        "meta_object_id": "2017-069A",
        "meta_epoch": "2025-12-10T02:59:44.237184",
        "meta_mean_motion": 1.86231011,
        "meta_eccentricity": 0.0009053,
        "meta_inclination": 56.5252,
        "meta_ra_of_asc_node": 69.32,
        "meta_arg_of_pericenter": 303.7778,
        "meta_mean_anomaly": 56.1585,
        "meta_ephemeris_type": 0,
        "meta_classification_type": "U",
        "meta_norad_cat_id": 43001,
        "meta_element_set_no": 999,
        "meta_rev_at_epoch": 5508,
        "meta_bstar": 0,
        "meta_mean_motion_dot": -5.2e-07,
        "meta_mean_motion_ddot": 0,
        "tle_line1": "1 43001U 17069A   25344.12481756 -.00000052  00000+0  00000+0 0  9999",
        "tle_line2": "2 43001  56.5252  69.3200 0009053 303.7778  56.1585  1.86231011 55088"
      },
      "geometry": {
        "type": "Point",
        "coordinates": [
          117.09780365627869,
          48.272235073112185
        ]
      }
    },
    {
      "type": "Feature",
      "properties": {
        "norad_id": 43002,
        "name": "BEIDOU-3 M2 (C20)",
        "group": "gnss",
        "lat": 53.766503596755584,
        "lon": -175.06292583842284,
        "alt_km": 21533.559237301717,
        "timestamp": "2025-12-11T07:02:23.973421+00:00",
        "meta_object_name": "BEIDOU-3 M2 (C20)",
        "meta_object_id": "2017-069B",
        "meta_epoch": "2025-12-09T12:37:45.819264",
        "meta_mean_motion": 1.8623055,
        "meta_eccentricity": 0.0006254,
        "meta_inclination": 56.5238,
        "meta_ra_of_asc_node": 69.3764,
        "meta_arg_of_pericenter": 332.6094,
        "meta_mean_anomaly": 27.38,
        "meta_ephemeris_type": 0,
        "meta_classification_type": "U",
        "meta_norad_cat_id": 43002,
        "meta_element_set_no": 999,
        "meta_rev_at_epoch": 5506,
        "meta_bstar": 0,
        "meta_mean_motion_dot": -4.8e-07,
        "meta_mean_motion_ddot": 0,
        "tle_line1": "1 43002U 17069B   25343.52622476 -.00000048  00000+0  00000+0 0  9994",
        "tle_line2": "2 43002  56.5238  69.3764 0006254 332.6094  27.3800  1.86230550 55065"
      },
      "geometry": {
        "type": "Point",
        "coordinates": [
          -175.06292583842284,
          53.766503596755584
        ]
      }
    },
    {
      "type": "Feature",
      "properties": {
        "norad_id": 43055,
        "name": "GSAT0215 (GALILEO 19)",
        "group": "gnss",
        "lat": -8.143004376660803,
        "lon": -139.0351064165481,
        "alt_km": 23219.725384541216,
        "timestamp": "2025-12-11T07:02:23.973436+00:00",
        "meta_object_name": "GSAT0215 (GALILEO 19)",
        "meta_object_id": "2017-079A",
        "meta_epoch": "2025-12-09T13:11:41.418816",
        "meta_mean_motion": 1.70473866,
        "meta_eccentricity": 0.00012854,
        "meta_inclination": 55.1311,
        "meta_ra_of_asc_node": 226.7257,
        "meta_arg_of_pericenter": 343.8684,
        "meta_mean_anomaly": 16.2123,
        "meta_ephemeris_type": 0,
        "meta_classification_type": "U",
        "meta_norad_cat_id": 43055,
        "meta_element_set_no": 999,
        "meta_rev_at_epoch": 4975,
        "meta_bstar": 0,
        "meta_mean_motion_dot": 1.1e-07,
        "meta_mean_motion_ddot": 0,
        "tle_line1": "1 43055U 17079A   25343.54978494  .00000011  00000+0  00000+0 0  9998",
        "tle_line2": "2 43055  55.1311 226.7257 0001285 343.8684  16.2123  1.70473866 49750"
      },
      "geometry": {
        "type": "Point",
        "coordinates": [
          -139.0351064165481,
          -8.143004376660803
        ]
      }
    },
    {
      "type": "Feature",
      "properties": {
        "norad_id": 43056,
        "name": "GSAT0216 (GALILEO 20)",
        "group": "gnss",
        "lat": 7.121737038796188,
        "lon": 41.69226665501784,
        "alt_km": 23227.784302251417,
        "timestamp": "2025-12-11T07:02:23.973447+00:00",
        "meta_object_name": "GSAT0216 (GALILEO 20)",
        "meta_object_id": "2017-079B",
        "meta_epoch": "2025-12-10T10:15:48.536640",
        "meta_mean_motion": 1.70473969,
        "meta_eccentricity": 0.00024798,
        "meta_inclination": 55.1311,
        "meta_ra_of_asc_node": 226.7014,
        "meta_arg_of_pericenter": 319.9819,
        "meta_mean_anomaly": 40.0811,
        "meta_ephemeris_type": 0,
        "meta_classification_type": "U",
        "meta_norad_cat_id": 43056,
        "meta_element_set_no": 999,
        "meta_rev_at_epoch": 4978,
        "meta_bstar": 0,
        "meta_mean_motion_dot": 9e-08,
        "meta_mean_motion_ddot": 0,
        "tle_line1": "1 43056U 17079B   25344.42764510  .00000009  00000+0  00000+0 0  9996",
        "tle_line2": "2 43056  55.1311 226.7014 0002479 319.9819  40.0811  1.70473969 49788"
      },
      "geometry": {
        "type": "Point",
        "coordinates": [
          41.69226665501784,
          7.121737038796188
        ]
      }
    }
  ]
}